OBJECT_NAME,OBJECT_ID,EPOCH,MEAN_MOTION,ECCENTRICITY,INCLINATION,RA_OF_ASC_NODE,ARG_OF_PERICENTER,MEAN_ANOMALY,EPHEMERIS_TYPE,CLASSIFICATION_TYPE,NORAD_CAT_ID,ELEMENT_SET_NO,REV_AT_EPOCH,BSTAR,MEAN_MOTION_DOT,MEAN_MOTION_DDOT
ONEWEB-0162,2021-025Q,2026-07-12T21:04:11.045568,13.13469126,.0001895,87.8981,315.1112,99.2476,260.8868,0,U,48056,999,25691,.39797E-3,.158E-5,0
ONEWEB-0155,2021-025R,2026-07-12T21:14:08.531808,13.13473144,.0002029,87.8982,315.1065,99.1512,260.9847,0,U,48057,999,25705,-.87369E-4,-.19E-6,0
ONEWEB-0149,2021-025S,2026-07-12T19:56:06.946080,13.13469872,.0001844,87.8972,315.1238,100.9486,259.1850,0,U,48058,999,25685,-.91731E-3,-.322E-5,0
ONEWEB-0148,2021-025T,2026-07-13T04:10:58.236096,13.13469484,.0001941,87.8977,315.0583,84.6527,275.4824,0,U,48059,999,25702,.70363E-3,.27E-5,0
ONEWEB-0160,2021-025U,2026-07-12T21:16:33.059136,13.13469222,.0001319,87.8983,315.1104,112.4458,247.6811,0,U,48060,999,25693,-.70607E-4,-.13E-6,0
ONEWEB-0163,2021-025V,2026-07-12T20:54:37.429920,13.13469136,.0002197,87.8986,315.1110,99.5128,260.6249,0,U,48061,999,25705,.71097E-3,.272E-5,0
ONEWEB-0159,2021-025W,2026-07-12T20:42:26.148096,13.13469698,.0002191,87.8989,315.1066,99.9076,260.2301,0,U,48062,999,25697,.71962E-3,.276E-5,0
ONEWEB-0164,2021-025X,2026-07-12T20:15:36.719136,13.13470374,.0001838,87.8982,315.1168,103.2618,256.8717,0,U,48063,999,25695,-.49447E-4,-.5E-7,0
ONEWEB-0167,2021-025Y,2026-07-12T20:55:51.162816,13.13469486,.00024,87.8987,315.1165,108.2158,251.9233,0,U,48064,999,25694,.81618E-3,.311E-5,0
ONEWEB-0166,2021-025Z,2026-07-12T21:28:44.893920,13.13469033,.0002087,87.8980,315.0896,93.0068,267.1300,0,U,48065,999,25702,-.31402E-3,-.102E-5,0
ONEWEB-0151,2021-025AA,2026-07-12T21:31:10.326720,13.13469616,.0001997,87.8985,315.1025,103.6451,256.4901,0,U,48066,999,25696,-.68449E-3,-.237E-5,0
ONEWEB-0170,2021-025AB,2026-07-12T21:43:21.230976,13.13469351,.0001718,87.8966,315.1055,135.2667,224.8601,0,U,48067,999,25692,-.80544E-3,-.281E-5,0
ONEWEB-0168,2021-025AC,2026-07-12T21:21:25.617312,13.13468992,.000199,87.8984,315.1073,102.6919,257.4432,0,U,48068,999,25693,-.34706E-3,-.114E-5,0
ONEWEB-0173,2021-025AD,2026-07-12T21:09:14.738112,13.13468821,.0002312,87.8979,315.1091,102.7562,257.3826,0,U,48069,999,25717,.21027E-3,.9E-6,0
ONEWEB-0171,2021-025AE,2026-07-12T20:13:10.405920,13.13469936,.0001992,87.8973,315.1246,102.2884,257.8468,0,U,48070,999,25698,-.43373E-3,-.146E-5,0
ONEWEB-0172,2021-025AF,2026-07-12T21:33:36.716832,13.13470046,.0002116,87.8982,315.1057,100.2559,259.8809,0,U,48071,999,25788,-.64986E-3,-.225E-5,0
ONEWEB-0174,2021-025AG,2026-07-12T21:06:48.759264,13.13468724,.0001945,87.8980,315.1083,96.5557,263.5793,0,U,48072,999,25720,.33967E-3,.137E-5,0
ONEWEB-0175,2021-025AH,2026-07-12T20:00:59.010048,13.13469893,.000209,87.8976,315.1034,110.0093,250.1262,0,U,48073,999,25685,-.65271E-3,-.226E-5,0
ONEWEB-0177,2021-025AJ,2026-07-12T18:28:21.431136,13.13470650,.0002092,87.8979,315.1331,96.6317,263.5051,0,U,48074,999,25703,.24588E-4,.22E-6,0
ONEWEB-0178,2021-025AK,2026-07-12T20:45:04.512384,13.13470400,.0002194,87.8978,315.1230,104.7119,255.4253,0,U,48075,999,25709,.8608E-3,.327E-5,0
ONEWEB-0108,2021-025AL,2026-07-12T19:46:21.484992,13.13469193,.0001756,87.8993,315.1131,98.8800,261.2528,0,U,48076,999,25701,-.86957E-3,-.305E-5,0
ONEWEB-0169,2021-025AM,2026-07-12T20:32:40.900416,13.13470008,.0001804,87.8966,315.1162,98.2404,261.8930,0,U,48077,999,25567,.73629E-3,.282E-5,0
ONEWEB-0176,2021-031A,2026-07-12T18:06:34.498080,13.14502309,.0002125,87.8967,284.6055,102.4485,257.6883,0,U,48210,999,25167,-.32088E-3,-.106E-5,0
ONEWEB-0184,2021-031B,2026-07-13T04:25:25.006080,13.14502133,.0002544,87.8981,284.5210,115.5805,244.5588,0,U,48211,999,25170,-.11855E-3,-.31E-6,0
ONEWEB-0179,2021-031C,2026-07-13T04:58:46.672896,14.25557703,.0221293,87.9000,280.7103,171.8605,188.6278,0,U,48212,999,25275,-.39043E-3,-.1172E-4,0
ONEWEB-0180,2021-031D,2026-07-13T04:29:59.246592,13.14503014,.0002439,87.8977,284.5185,98.1894,261.9512,0,U,48213,999,25163,-.1373E-3,-.38E-6,0
ONEWEB-0218,2021-031E,2026-07-13T05:01:56.872128,13.14503675,.0002799,87.8979,284.5129,111.5368,248.6060,0,U,48214,999,25179,-.42471E-3,-.145E-5,0
ONEWEB-0209,2021-031F,2026-07-13T04:45:58.411008,13.14503694,.0002261,87.8967,284.5305,95.8251,264.3137,0,U,48215,999,25179,-.34988E-3,-.117E-5,0
ONEWEB-0198,2021-031G,2026-07-13T04:23:20.163264,13.14502685,.0002482,87.8965,284.5293,101.7031,258.4377,0,U,48216,999,25190,-.3241E-5,.12E-6,0
ONEWEB-0189,2021-031H,2026-07-13T04:41:24.061632,13.14502383,.000228,87.8962,284.5179,98.2297,261.9091,0,U,48217,999,25164,-.61768E-3,-.216E-5,0
