ONEWEB-0162             
1 48056U 21025Q   26193.87790562  .00000158  00000+0  39797-3 0  9999
2 48056  87.8981 315.1112 0001895  99.2476 260.8868 13.13469126256917
ONEWEB-0155             
1 48057U 21025R   26193.88482097 -.00000019  00000+0 -87369-4 0  9999
2 48057  87.8982 315.1065 0002029  99.1512 260.9847 13.13473144257055
ONEWEB-0149             
1 48058U 21025S   26193.83063595 -.00000322  00000+0 -91731-3 0  9997
2 48058  87.8972 315.1238 0001844 100.9486 259.1850 13.13469872256856
ONEWEB-0148             
1 48059U 21025T   26194.17428514  .00000270  00000+0  70363-3 0  9990
2 48059  87.8977 315.0583 0001941  84.6527 275.4824 13.13469484257027
ONEWEB-0160             
1 48060U 21025U   26193.88649374 -.00000013  00000+0 -70607-4 0  9997
2 48060  87.8983 315.1104 0001319 112.4458 247.6811 13.13469222256934
ONEWEB-0163             
1 48061U 21025V   26193.87126655  .00000272  00000+0  71097-3 0  9997
2 48061  87.8986 315.1110 0002197  99.5128 260.6249 13.13469136257057
ONEWEB-0159             
1 48062U 21025W   26193.86280264  .00000276  00000+0  71962-3 0  9999
2 48062  87.8989 315.1066 0002191  99.9076 260.2301 13.13469698256979
ONEWEB-0164             
1 48063U 21025X   26193.84417499 -.00000005  00000+0 -49447-4 0  9996
2 48063  87.8982 315.1168 0001838 103.2618 256.8717 13.13470374256957
ONEWEB-0167             
1 48064U 21025Y   26193.87211994  .00000311  00000+0  81618-3 0  9995
2 48064  87.8987 315.1165 0002400 108.2158 251.9233 13.13469486256940
ONEWEB-0166             
1 48065U 21025Z   26193.89496405 -.00000102  00000+0 -31402-3 0  9996
2 48065  87.8980 315.0896 0002087  93.0068 267.1300 13.13469033257028
ONEWEB-0151             
1 48066U 21025AA  26193.89664730 -.00000237  00000+0 -68449-3 0  9995
2 48066  87.8985 315.1025 0001997 103.6451 256.4901 13.13469616256969
ONEWEB-0170             
1 48067U 21025AB  26193.90510684 -.00000281  00000+0 -80544-3 0  9995
2 48067  87.8966 315.1055 0001718 135.2667 224.8601 13.13469351256921
ONEWEB-0168             
1 48068U 21025AC  26193.88987983 -.00000114  00000+0 -34706-3 0  9997
2 48068  87.8984 315.1073 0001990 102.6919 257.4432 13.13468992256937
ONEWEB-0173             
1 48069U 21025AD  26193.88142058  .00000090  00000+0  21027-3 0  9997
2 48069  87.8979 315.1091 0002312 102.7562 257.3826 13.13468821257170
ONEWEB-0171             
1 48070U 21025AE  26193.84248155 -.00000146  00000+0 -43373-3 0  9992
2 48070  87.8973 315.1246 0001992 102.2884 257.8468 13.13469936256986
ONEWEB-0172             
1 48071U 21025AF  26193.89834163 -.00000225  00000+0 -64986-3 0  9999
2 48071  87.8982 315.1057 0002116 100.2559 259.8809 13.13470046257888
ONEWEB-0174             
1 48072U 21025AG  26193.87973101  .00000137  00000+0  33967-3 0  9999
2 48072  87.8980 315.1083 0001945  96.5557 263.5793 13.13468724257200
ONEWEB-0175             
1 48073U 21025AH  26193.83401632 -.00000226  00000+0 -65271-3 0  9995
2 48073  87.8976 315.1034 0002090 110.0093 250.1262 13.13469893256852
ONEWEB-0177             
1 48074U 21025AJ  26193.76969249  .00000022  00000+0  24588-4 0  9990
2 48074  87.8979 315.1331 0002092  96.6317 263.5051 13.13470650257034
ONEWEB-0178             
1 48075U 21025AK  26193.86463556  .00000327  00000+0  86080-3 0  9994
2 48075  87.8978 315.1230 0002194 104.7119 255.4253 13.13470400257099
ONEWEB-0108             
1 48076U 21025AL  26193.82385978 -.00000305  00000+0 -86957-3 0  9993
2 48076  87.8993 315.1131 0001756  98.8800 261.2528 13.13469193257019
ONEWEB-0169             
1 48077U 21025AM  26193.85602894  .00000282  00000+0  73629-3 0  9990
2 48077  87.8966 315.1162 0001804  98.2404 261.8930 13.13470008255672
ONEWEB-0176             
1 48210U 21031A   26193.75456595 -.00000106  00000+0 -32088-3 0  9991
2 48210  87.8967 284.6055 0002125 102.4485 257.6883 13.14502309251674
ONEWEB-0184             
1 48211U 21031B   26194.18431720 -.00000031  00000+0 -11855-3 0  9999
2 48211  87.8981 284.5210 0002544 115.5805 244.5588 13.14502133251705
ONEWEB-0179             
1 48212U 21031C   26194.20748464 -.00001172  00000+0 -39043-3 0  9995
2 48212  87.9000 280.7103 0221293 171.8605 188.6278 14.25557703252751
ONEWEB-0180             
1 48213U 21031D   26194.18749128 -.00000038  00000+0 -13730-3 0  9996
2 48213  87.8977 284.5185 0002439  98.1894 261.9512 13.14503014251631
ONEWEB-0218             
1 48214U 21031E   26194.20968602 -.00000145  00000+0 -42471-3 0  9993
2 48214  87.8979 284.5129 0002799 111.5368 248.6060 13.14503675251797
ONEWEB-0209             
1 48215U 21031F   26194.19859272 -.00000117  00000+0 -34988-3 0  9997
2 48215  87.8967 284.5305 0002261  95.8251 264.3137 13.14503694251791
ONEWEB-0198             
1 48216U 21031G   26194.18287226  .00000012  00000+0 -32410-5 0  9994
2 48216  87.8965 284.5293 0002482 101.7031 258.4377 13.14502685251906
ONEWEB-0189             
1 48217U 21031H   26194.19541738 -.00000216  00000+0 -61768-3 0  9990
2 48217  87.8962 284.5179 0002280  98.2297 261.9091 13.14502383251645
